ONEWEB-0613             
1 56071U 23043AB  23231.18469317 -.00000064  00000+0 -18434-3 0  9995
2 56071  87.9182 104.8995 0002448 115.3844 244.7544 13.22695176 21528
ONEWEB-0630             
1 56072U 23043AC  23231.16439563 -.00000004  00000+0 -45867-4 0  9999
2 56072  87.8970 104.8780 0002097  92.8147 267.3224 13.15544439 21512
ONEWEB-0632             
1 56073U 23043AD  23232.14895641 -.00000074  00000+0 -23119-3 0  9994
2 56073  87.8989 104.7252 0001082 104.8586 255.2664 13.15569386 21646
ONEWEB-0633             
1 56074U 23043AE  23231.15595555  .00000260  00000+0  65730-3 0  9996
2 56074  87.8982 104.9231 0002266  96.4526 263.6862 13.15546863 21495
ONEWEB-0634             
1 56075U 23043AF  23231.21300883  .00000906  00000+0  23735-2 0  9997
2 56075  87.8976 104.9060 0001794  79.4466 280.6866 13.15536700 21490
ONEWEB-0635             
1 56076U 23043AG  23232.11932953 -.00004304  00000+0 -11483-1 0  9991
2 56076  87.8961 104.8074 0002335  88.0785 272.0612 13.15485249 21643
ONEWEB-0636             
1 56077U 23043AH  23231.19823212  .00000011  00000+0 -45589-5 0  9994
2 56077  87.8969 104.9514 0001174  85.9092 274.2172 13.15557090 21503
ONEWEB-0637             
1 56078U 23043AJ  23232.12650359  .00000087  00000+0  17714-3 0  9998
2 56078  87.9181 104.7301 0001940  67.1883 292.9456 13.22510708 21644
